      2.10          N: GNSS NAV DATA                        RINEX VERSION / TYPE
fic2rin                                 05/23/2023 00:18:05 PGM / RUN BY / DATE
                                                            END OF HEADER
24 23  5 22 18  0  0.0 -.198128633201D-03 -.137561073643D-10  .000000000000D+00
     .580000000000D+02 -.771875000000D+01  .528450583517D-08  .205051742398D+01
    -.512227416039D-06  .138703442644D-01  .580213963985D-05  .515364358330D+04
     .151200000000D+06 -.217929482460D-06 -.852267142313D+00 -.281259417534D-06
     .933762910150D+00  .253718750000D+03  .893148459721D+00 -.825712965688D-08
    -.560737642688D-10  .100000000000D+01  .226300000000D+04  .000000000000D+00
     .240000000000D+01  .000000000000D+00  .279396772385D-08  .580000000000D+02
     .144000000000D+06  .400000000000D+01
16 23  5 22 18  0  0.0 -.498711597174D-03  .341060513165D-11  .000000000000D+00
     .440000000000D+02  .759687500000D+02  .412445751450D-08 -.144077542144D+01
     .399723649025D-05  .133216566173D-01  .911578536034D-05  .515360628319D+04
     .151200000000D+06  .301748514175D-06  .370875686724D+00 -.298023223877D-07
     .965570760515D+00  .199218750000D+03  .789081353709D+00 -.761567436626D-08
    -.892894335490D-10  .100000000000D+01  .226300000000D+04  .000000000000D+00
     .240000000000D+01  .000000000000D+00 -.102445483208D-07  .440000000000D+02
     .144000000000D+06  .400000000000D+01
30 23  5 22 18  0  0.0 -.515688676387D-03  .227373675443D-11  .000000000000D+00
     .630000000000D+02 -.506250000000D+01  .523378943691D-08  .997509983849D+00
    -.188127160072D-06  .650592963211D-02  .617280602455D-05  .515358395195D+04
     .151200000000D+06 -.139698386192D-06 -.755481064430D+00  .800937414169D-07
     .935389078184D+00  .248125000000D+03 -.258385604873D+01 -.822498546080D-08
    -.280011663610D-09  .100000000000D+01  .226300000000D+04  .000000000000D+00
     .240000000000D+01  .000000000000D+00  .372529029846D-08  .630000000000D+02
     .144000000000D+06  .400000000000D+01
19 23  5 22 18  0  0.0  .320393592119D-03  .511590769747D-11  .000000000000D+00
     .390000000000D+02  .104062500000D+03  .443661337418D-08 -.213978164524D+00
     .543706119061D-05  .942302111071D-02  .362657010555D-05  .515362318039D+04
     .151200000000D+06 -.316649675369D-07  .143644128671D+01 -.122934579849D-06
     .973146919201D+00  .317687500000D+03  .230124442859D+01 -.825891544555D-08
     .234295473633D-09  .100000000000D+01  .226300000000D+04  .000000000000D+00
     .240000000000D+01  .000000000000D+00 -.153668224812D-07  .390000000000D+02
     .144000000000D+06  .400000000000D+01
27 23  5 22 18  0  0.0  .320379622281D-04 -.795807864051D-11  .000000000000D+00
     .820000000000D+02  .108093750000D+03  .447447209401D-08 -.231815725377D+01
     .542402267456D-05  .115668609506D-01  .346265733242D-05  .515366849327D+04
     .151200000000D+06  .171363353729D-06  .132617811845D+01 -.134110450745D-06
     .967460016810D+00  .316718750000D+03  .738046915234D+00 -.799461872225D-08
     .294655130712D-09  .100000000000D+01  .226300000000D+04  .000000000000D+00
     .240000000000D+01  .000000000000D+00  .186264514923D-08  .820000000000D+02
     .144000000000D+06  .400000000000D+01
17 23  5 22 18  0  0.0  .715738162398D-03  .136424205266D-11  .000000000000D+00
     .480000000000D+02  .121750000000D+03  .429089301863D-08 -.239630803893D+01
     .643730163574D-05  .134981002193D-01  .340491533279D-05  .515377046967D+04
     .151200000000D+06  .122934579849D-06  .139187668975D+01  .154599547386D-06
     .974108474774D+00  .319125000000D+03 -.140785462542D+01 -.784068373881D-08
     .267868300647D-09  .100000000000D+01  .226300000000D+04  .000000000000D+00
     .240000000000D+01  .000000000000D+00 -.111758708954D-07  .480000000000D+02
     .144000000000D+06  .400000000000D+01
13 23  5 22 18  0  0.0  .523592345417D-03  .534328137292D-11  .000000000000D+00
     .620000000000D+02 -.831250000000D+01  .424339103998D-08 -.272467154425D+01
    -.366941094398D-06  .695977895521D-02  .723451375961D-05  .515366255379D+04
     .151200000000D+06  .149011611938D-07 -.167357218524D+01 -.931322574615D-08
     .969337484911D+00  .245093750000D+03  .907375820805D+00 -.757102964949D-08
     .451804533758D-09  .100000000000D+01  .226300000000D+04  .000000000000D+00
     .240000000000D+01  .000000000000D+00 -.111758708954D-07  .620000000000D+02
     .144000000000D+06  .400000000000D+01
11 23  5 22 18  0  0.0 -.206461176276D-03 -.142108547152D-10  .000000000000D+00
     .201000000000D+03 -.605625000000D+02  .457554773279D-08 -.292366421088D+01
    -.318139791489D-05  .827364157885D-03  .129826366901D-05  .515374953270D+04
     .151200000000D+06 -.745058059692D-07  .242822069275D+01  .000000000000D+00
     .965392565390D+00  .354968750000D+03 -.285368062232D+01 -.829427406124D-08
    -.246081678861D-09  .100000000000D+01  .226300000000D+04  .000000000000D+00
     .240000000000D+01  .000000000000D+00 -.884756445885D-08  .201000000000D+03
     .144000000000D+06  .400000000000D+01
28 23  5 22 18  0  0.0  .796453095973D-04  .272848410532D-11  .000000000000D+00
     .300000000000D+01 -.100312500000D+02  .461662087222D-08 -.440648650191D+00
    -.469386577606D-06  .701276352629D-03  .624358654022D-05  .515367451477D+04
     .151200000000D+06 -.279396772385D-07 -.799070025228D+00 -.558793544769D-08
     .961377580869D+00  .259406250000D+03  .171601215409D+01 -.795175979414D-08
    -.155006456641D-09  .100000000000D+01  .226300000000D+04  .000000000000D+00
     .240000000000D+01  .000000000000D+00 -.977888703346D-08  .515000000000D+03
     .144000000000D+06  .400000000000D+01
18 23  5 22 18  0  0.0 -.277024228126D-03 -.155750967679D-10  .000000000000D+00
     .180000000000D+03 -.589375000000D+02  .446911472800D-08  .191579574152D+01
    -.291317701340D-05  .320322939660D-02  .169128179550D-05  .515367711067D+04
     .151200000000D+06  .763684511185D-07  .239618024573D+01  .126659870148D-06
     .973840905594D+00  .355343750000D+03  .312860498538D+01 -.824570060938D-08
    -.185007706314D-09  .100000000000D+01  .226300000000D+04  .000000000000D+00
     .240000000000D+01  .000000000000D+00 -.838190317154D-08  .692000000000D+03
     .144000000000D+06  .400000000000D+01
14 23  5 22 18  0  0.0  .656158663332D-04  .127329258248D-10  .000000000000D+00
     .116000000000D+03  .710000000000D+02  .455661837287D-08  .372598849152D+00
     .370852649212D-05  .315884349402D-02  .966899096966D-05  .515368229675D+04
     .151200000000D+06  .372529029846D-07  .314052200529D+00 -.186264514923D-08
     .949236485795D+00  .188031250000D+03 -.302759214803D+01 -.787354225035D-08
    -.251439044874D-09  .100000000000D+01  .226300000000D+04  .000000000000D+00
     .240000000000D+01  .000000000000D+00 -.791624188423D-08  .372000000000D+03
     .144000000000D+06  .400000000000D+01
23 23  5 22 18  0  0.0  .263764522970D-04  .318323145621D-11  .000000000000D+00
     .238000000000D+03 -.980937500000D+02  .397587989707D-08  .866874145268D+00
    -.509433448315D-05  .316183548421D-02  .824406743050D-05  .515366446686D+04
     .151200000000D+06  .409781932831D-07 -.288770563182D+01  .260770320892D-07
     .974120611142D+00  .225218750000D+03 -.309610267171D+01 -.774139388870D-08
    -.764317551180D-10  .100000000000D+01  .226300000000D+04  .000000000000D+00
     .240000000000D+01  .000000000000D+00 -.838190317154D-08  .100600000000D+04
     .144000000000D+06  .400000000000D+01
22 23  5 22 18  0  0.0  .485648866743D-03  .625277607469D-11  .000000000000D+00
     .350000000000D+02  .281250000000D+01  .436589614281D-08 -.252988875940D+01
     .160187482834D-06  .143429622985D-01  .739470124245D-05  .515362675858D+04
     .151200000000D+06  .108033418655D-06 -.172862633492D+01 -.987201929092D-07
     .962221526606D+00  .237593750000D+03 -.180344923601D+01 -.753602819154D-08
     .467162316328D-09  .100000000000D+01  .226300000000D+04  .000000000000D+00
     .240000000000D+01  .630000000000D+02 -.838190317154D-08  .350000000000D+02
     .144000000000D+06  .400000000000D+01
21 23  5 22 18  0  0.0  .153668224812D-03 -.227373675443D-12  .000000000000D+00
     .101000000000D+03 -.457500000000D+02  .456126142342D-08 -.238338189959D+01
    -.190921127796D-05  .246653811773D-01  .121071934700D-05  .515362208748D+04
     .151200000000D+06 -.206753611565D-06  .229160127345D+01  .387430191040D-06
     .961691236357D+00  .358281250000D+03 -.759423252684D+00 -.800354766560D-08
    -.146791828755D-09  .100000000000D+01  .226300000000D+04  .000000000000D+00
     .485000000000D+01  .000000000000D+00 -.102445483208D-07  .101000000000D+03
     .144000000000D+06  .400000000000D+01
9  23  5 22 17 59 44.0 -.153073109686D-03  .852651282912D-11  .000000000000D+00
     .260000000000D+02 -.821875000000D+01  .464090759814D-08 -.191775293573D+01
    -.474974513054D-06  .235746451654D-02  .795163214207D-05  .515360712433D+04
     .151184000000D+06  .000000000000D+00 -.183382480180D+01  .108033418655D-06
     .955692177970D+00  .223000000000D+03  .194930785195D+01 -.790497213096D-08
     .420731810883D-09  .100000000000D+01  .226300000000D+04  .000000000000D+00
     .240000000000D+01  .000000000000D+00  .931322574615D-09  .260000000000D+02
     .150240000000D+06  .400000000000D+01
